{"fetched_at":"2026-03-29T16:36:15Z","count":15609,"tles":[{"name":"STARLINK-3160","line1":"1 49454U 21104AY  26087.42199242  .00001515  00000+0  11329-3 0  9990","line2":"2 49454  53.2160 135.0302 0001554 103.0912 257.0254 15.08827406241609","category":"Starlink"}]}